NORAD_CAT_ID,OBJECT_NAME,OBJECT_TYPE,EPOCH,MEAN_MOTION,ECCENTRICITY,INCLINATION,RA_OF_ASC_NODE,ARG_OF_PERICENTER,MEAN_ANOMALY,BSTAR,MEAN_MOTION_DOT,MEAN_MOTION_DDOT,TLE_LINE0,TLE_LINE1,TLE_LINE2,SEMIMAJOR_AXIS,PERIOD,APOGEE,PERIGEE,DECAYED
50814.0,STARLINK-3324,PAYLOAD,2022-11-20 20:46:39,15.0882818,0.0002059,53.2171,177.7937,45.1443,314.9716,-5.2441e-05,-1.122e-05,0.0,0 STARLINK-3324,1 50814U 22001M   22324.86573057 -.00001122  00000-0 -52441-4 0  9995,2 50814  53.2171 177.7937 0002059  45.1443 314.9716 15.08828180 48528,6917.917,95.438,541.206,538.357,0.0
50814.0,STARLINK-3324,PAYLOAD,2022-11-21 01:32:48,15.08827273,0.0002282,53.2168,176.9032,39.7571,320.3588,-9.6468e-05,-1.823e-05,0.0,0 STARLINK-3324,1 50814U 22001M   22325.06445394 -.00001823  00000-0 -96468-4 0  9995,2 50814  53.2168 176.9032 0002282  39.7571 320.3588 15.08827273 49824,6917.919,95.438,541.363,538.206,0.0
50814.0,STARLINK-3324,PAYLOAD,2022-11-21 15:51:16,15.08853594,0.0002337,53.2166,174.227,40.7991,319.3175,-0.00039925,-6.639e-05,0.0,0 STARLINK-3324,1 50814U 22001M   22325.66061106 -.00006639  00000-0 -39925-3 0  9990,2 50814  53.2166 174.2270 0002337  40.7991 319.3175 15.08853594 49911,6917.839,95.437,541.321,538.087,0.0
50814.0,STARLINK-3324,PAYLOAD,2022-11-21 19:02:02,15.08853622,0.0002419,53.2165,173.6328,41.6276,318.49,-0.00036516,-6.098e-05,0.0,0 STARLINK-3324,1 50814U 22001M   22325.79308904 -.00006098  00000-0 -36516-3 0  9996,2 50814  53.2165 173.6328 0002419  41.6276 318.4900 15.08853622 48663,6917.839,95.437,541.377,538.03,0.0
50814.0,STARLINK-3324,PAYLOAD,2022-11-22 01:23:35,15.08853398,0.0002368,53.2164,172.4429,41.0854,319.0316,-0.00034281,-5.742e-05,0.0,0 STARLINK-3324,1 50814U 22001M   22326.05804640 -.00005742  00000-0 -34281-3 0  9996,2 50814  53.2164 172.4429 0002368  41.0854 319.0316 15.08853398 48703,6917.839,95.437,541.3430000000002,538.066,0.0
50814.0,STARLINK-3324,PAYLOAD,2022-11-22 18:52:50,15.08823027,0.000242,53.2164,169.1722,40.1765,319.9405,0.00011849,1.597e-05,0.0,0 STARLINK-3324,1 50814U 22001M   22326.78669513  .00001597  00000-0  11849-3 0  9991,2 50814  53.2164 169.1722 0002420  40.1765 319.9405 15.08823027 50080,6917.932,95.439,541.471,538.123,0.0
50814.0,STARLINK-3324,PAYLOAD,2022-11-22 20:28:13,15.0882424,0.0002418,53.2164,168.8747,40.7823,319.335,0.0001289,1.763e-05,0.0,0 STARLINK-3324,1 50814U 22001M   22326.85293485  .00001763  00000-0  12890-3 0  9992,2 50814  53.2164 168.8747 0002418  40.7823 319.3350 15.08824240 48821,6917.929,95.439,541.466,538.121,0.0
50814.0,STARLINK-3324,PAYLOAD,2022-11-23 06:00:32,15.08827295,0.0002496,53.2165,167.0907,41.0729,319.0451,0.00013225,1.816e-05,0.0,0 STARLINK-3324,1 50814U 22001M   22327.25037765  .00001816  00000-0  13225-3 0  9996,2 50814  53.2165 167.0907 0002496  41.0729 319.0451 15.08827295 48884,6917.919,95.438,541.511,538.058,0.0
50814.0,STARLINK-3324,PAYLOAD,2022-11-23 18:43:37,15.08833446,0.0002521,53.2166,164.7119,41.4956,318.6227,0.00011102,1.479e-05,0.0,0 STARLINK-3324,1 50814U 22001M   22327.78029826  .00001479  00000-0  11102-3 0  9990,2 50814  53.2166 164.7119 0002521  41.4956 318.6227 15.08833446 50232,6917.9,95.438,541.509,538.021,0.0
50814.0,STARLINK-3324,PAYLOAD,2022-11-24 05:51:19,15.08836825,0.0002577,53.2168,162.6304,42.132,317.987,0.00012587,1.715e-05,0.0,0 STARLINK-3324,1 50814U 22001M   22328.24397827  .00001715  00000-0  12587-3 0  9992,2 50814  53.2168 162.6304 0002577  42.1320 317.9870 15.08836825 49037,6917.89,95.438,541.538,537.972,0.0
50814.0,STARLINK-3324,PAYLOAD,2022-11-24 16:59:01,15.08841444,0.000259,53.2167,160.5488,43.3536,316.766,9.9035e-05,1.288e-05,0.0,0 STARLINK-3324,1 50814U 22001M   22328.70765700  .00001288  00000-0  99035-4 0  9991,2 50814  53.2167 160.5488 0002590  43.3536 316.7660 15.08841444 49108,6917.876,95.437,541.533,537.9490000000002,0.0
50814.0,STARLINK-3324,PAYLOAD,2022-11-25 00:55:57,15.08843314,0.0002604,53.2167,159.0619,44.5671,315.553,0.0001049,1.382e-05,0.0,0 STARLINK-3324,1 50814U 22001M   22329.03885499  .00001382  00000-0  10490-3 0  9998,2 50814  53.2167 159.0619 0002604  44.5671 315.5530 15.08843314 50424,6917.87,95.437,541.5369999999998,537.934,0.0
50814.0,STARLINK-3324,PAYLOAD,2022-11-25 12:03:39,15.08840696,0.0002874,53.2168,156.9804,50.8597,309.265,6.9886e-05,8.24e-06,0.0,0 STARLINK-3324,1 50814U 22001M   22329.50253871  .00000824  00000-0  69886-4 0  9997,2 50814  53.2168 156.9804 0002874  50.8597 309.2650 15.08840696 49222,6917.878000000002,95.438,541.731,537.755,0.0
50814.0,STARLINK-3324,PAYLOAD,2022-11-25 16:49:49,15.08832809,0.0002695,53.2165,156.0886,47.4852,312.6368,-2.5376e-05,-6.92e-06,0.0,0 STARLINK-3324,1 50814U 22001M   22329.70126597 -.00000692  00000-0 -25376-4 0  9994,2 50814  53.2165 156.0886 0002695  47.4852 312.6368 15.08832809 50523,6917.901999999999,95.438,541.632,537.903,0.0
50814.0,STARLINK-3324,PAYLOAD,2022-11-25 20:00:35,15.08832694,0.0002689,53.2167,155.4939,47.0837,313.038,-2.548e-05,-6.94e-06,0.0,0 STARLINK-3324,1 50814U 22001M   22329.83374651 -.00000694  00000-0 -25480-4 0  9992,2 50814  53.2167 155.4939 0002689  47.0837 313.0380 15.08832694 49270,6917.903,95.438,541.628,537.9069999999998,0.0
50814.0,STARLINK-3324,PAYLOAD,2022-11-26 13:29:50,15.08837003,0.0002598,53.2167,152.2223,47.8489,312.2723,-6.638e-06,-3.94e-06,0.0,0 STARLINK-3324,1 50814U 22001M   22330.56238448 -.00000394  00000-0 -66380-5 0  9999,2 50814  53.2167 152.2223 0002598  47.8489 312.2723 15.08837003 49384,6917.89,95.438,541.552,537.957,0.0
50814.0,STARLINK-3324,PAYLOAD,2022-11-26 16:40:36,15.08838004,0.0002605,53.2167,151.6275,47.966,312.1554,-5.352300000000001e-07,-2.97e-06,0.0,0 STARLINK-3324,1 50814U 22001M   22330.69486383 -.00000297  00000-0 -53523-6 0  9994,2 50814  53.2167 151.6275 0002605  47.9660 312.1554 15.08838004 50672,6917.886,95.438,541.554,537.9490000000002,0.0
50814.0,STARLINK-3324,PAYLOAD,2022-11-27 11:45:13,15.08849031,0.000257,53.2167,148.0591,47.8288,312.2922,-0.0001144,-2.109e-05,0.0,0 STARLINK-3324,1 50814U 22001M   22331.48973925 -.00002109  00000-0 -11440-3 0  9998,2 50814  53.2167 148.0591 0002570  47.8288 312.2922 15.08849031 49523,6917.853,95.437,541.496,537.94,0.0
50814.0,STARLINK-3324,PAYLOAD,2022-11-27 16:31:23,15.0883696,0.0002578,53.2167,147.1671,49.5437,310.5779,0.00011773,1.586e-05,0.0,0 STARLINK-3324,1 50814U 22001M   22331.68846276  .00001586  00000-0  11773-3 0  9993,2 50814  53.2167 147.1671 0002578  49.5437 310.5779 15.08836960 49556,6917.89,95.438,541.538,537.971,0.0
50814.0,STARLINK-3324,PAYLOAD,2022-11-27 18:06:46,15.08837742,0.0002604,53.2167,146.8698,49.0101,311.1116,0.00011472,1.538e-05,0.0,0 STARLINK-3324,1 50814U 22001M   22331.75470274  .00001538  00000-0  11472-3 0  9995,2 50814  53.2167 146.8698 0002604  49.0101 311.1116 15.08837742 50838,6917.887,95.438,541.554,537.951,0.0
50814.0,STARLINK-3324,PAYLOAD,2022-11-28 17:57:32,15.08846326,0.0002662,53.2167,142.4094,50.3064,309.8162,0.00013033,1.787e-05,0.0,0 STARLINK-3324,1 50814U 22001M   22332.74829758  .00001787  00000-0  13033-3 0  9991,2 50814  53.2167 142.4094 0002662  50.3064 309.8162 15.08846326 49715,6917.861,95.437,541.568,537.885,0.0
50814.0,STARLINK-3324,PAYLOAD,2022-11-29 11:26:47,15.0884325,0.0002708,53.2165,139.1384,51.1836,308.9397,7.6617e-05,9.31e-06,0.0,0 STARLINK-3324,1 50814U 22001M   22333.47693941  .00000931  00000-0  76617-4 0  9993,2 50814  53.2165 139.1384 0002708  51.1836 308.9397 15.08843250 51092,6917.87,95.437,541.609,537.862,0.0
50814.0,STARLINK-3324,PAYLOAD,2022-11-29 17:48:20,15.08843257,0.0002736,53.2166,137.9492,51.4078,308.7159,6.087399999999999e-05,6.81e-06,0.0,0 STARLINK-3324,1 50814U 22001M   22333.74189918  .00000681  00000-0  60874-4 0  9997,2 50814  53.2166 137.9492 0002736  51.4078 308.7159 15.08843257 49864,6917.87,95.437,541.628,537.8430000000002,0.0
50814.0,STARLINK-3324,PAYLOAD,2022-11-29 20:59:06,15.08839452,0.0002722,53.2168,137.3545,51.0599,309.0636,1.5776e-05,-3.7e-07,0.0,0 STARLINK-3324,1 50814U 22001M   22333.87438333 -.00000037  00000-0  15776-4 0  9996,2 50814  53.2168 137.3545 0002722  51.0599 309.0636 15.08839452 51159,6917.882,95.438,541.63,537.864,0.0
50814.0,STARLINK-3324,PAYLOAD,2022-11-30 11:17:36,15.08822017,0.000262,53.2167,134.6779,54.004,306.1194,-0.00015102,-2.69e-05,0.0,0 STARLINK-3324,1 50814U 22001M   22334.47056265 -.00002690  00000-0 -15102-3 0  9993,2 50814  53.2167 134.6779 0002620  54.0040 306.1194 15.08822017 49971,6917.935,95.439,541.613,537.988,0.0
50814.0,STARLINK-3324,PAYLOAD,2022-12-01 03:11:27,15.08835226,0.0002642,53.2198,131.7055,61.5063,298.6195,-8.1086e-05,-1.579e-05,0.0,0 STARLINK-3324,1 50814U 22001M   22335.13295740 -.00001579  00000-0 -81086-4 0  9990,2 50814  53.2198 131.7055 0002642  61.5063 298.6195 15.08835226 51348,6917.895,95.438,541.5880000000002,537.932,0.0
50814.0,STARLINK-3324,PAYLOAD,2022-12-01 12:43:45,15.08836687,0.000248,53.2179,129.9211,50.0713,310.0496,0.00011109,1.4800000000000002e-05,0.0,0 STARLINK-3324,1 50814U 22001M   22335.53039232  .00001480  00000-0  11109-3 0  9993,2 50814  53.2179 129.9211 0002480  50.0713 310.0496 15.08836687 50136,6917.891,95.438,541.471,538.04,0.0
50814.0,STARLINK-3324,PAYLOAD,2022-12-01 19:05:18,15.08841214,0.0002514,53.2174,128.7314,52.0282,308.0936,0.00014724,2.056e-05,0.0,0 STARLINK-3324,1 50814U 22001M   22335.79534961  .00002056  00000-0  14724-3 0  9996,2 50814  53.2174 128.7314 0002514  52.0282 308.0936 15.08841214 51446,6917.877,95.437,541.481,538.003,0.0
50814.0,STARLINK-3324,PAYLOAD,2022-12-02 10:59:09,15.08834049,0.0002547,53.2172,125.7578,48.5219,311.5992,0.00043979,6.717e-05,0.0,0 STARLINK-3324,1 50814U 22001M   22336.45775111  .00006717  00000-0  43979-3 0  9996,2 50814  53.2172 125.7578 0002547  48.5219 311.5992 15.08834049 50278,6917.899,95.438,541.526,538.002,0.0
